COSMOS 1408 DEB         
1 49527U 82092Q   24366.67297154  .00187673  00000+0  85229-2 0  9999
2 49527  82.3607 185.9418 0207441 155.6524 205.4678 15.02988557164190
COSMOS 1408 DEB         
1 49537U 82092AA  24366.78275820  .00040069  00000+0  10655-2 0  9996
2 49537  82.5464  96.6478 0086495  86.1757 274.9369 15.34243859172009
COSMOS 1408 DEB         
1 49619U 82092DL  24366.73421904  .01733561  00000+0  17572-1 0  9999
2 49619  81.9048 115.8172 0077664 178.5174 181.6326 15.58660871164600
COSMOS 1408 DEB         
1 50032U 82092RU  24366.54316722  .00009316  00000+0  22165-3 0  9999
2 50032  82.5643  52.1630 0017960  32.5980 327.6371 15.41290049172630
COSMOS 1408 DEB         
1 50058U 82092SW  24366.55008290  .00029003  00000+0  58167-3 0  9992
2 50058  82.6145  66.5052 0023034 294.4302  65.4544 15.46254929174261
COSMOS 1408 DEB         
1 50351U 82092ABM 24366.57052461  .00321155  00000+0  28018-2 0  9993
2 50351  82.5022  96.6036 0047148  97.7651 262.8966 15.66589702171742
COSMOS 1408 DEB         
1 50404U 82092ADS 24366.80052848  .00081836  00000+0  66187-2 0  9995
2 50404  82.2289 194.4394 0341074 260.2045  96.0494 14.63562645160526
COSMOS 1408 DEB         
1 50621U 82092ALR 24366.90745968  .00027352  00000+0  64904-3 0  9998
2 50621  82.5757  69.5700 0039240 334.9474  24.9867 15.40737993168996
COSMOS 1408 DEB         
1 50689U 82092APM 24366.52610081  .00154320  00000+0  81958-3 0  9991
2 50689  82.4994  36.1093 0019982 208.1890 151.8297 15.79765159169335
COSMOS 1408 DEB         
1 51184U 82092AZJ 24366.81786619  .00086512  00000+0  75019-3 0  9993
2 51184  82.4842  32.6414 0011545 211.3061 148.7514 15.68741689167266
COSMOS 1408 DEB         
1 51435U 82092BKH 24366.61144417  .00173274  00000+0  13874-2 0  9996
2 51435  82.5423  66.1311 0025573 338.8326  21.1875 15.70091312164629
COSMOS 1408 DEB         
1 52066U 82092BUU 24365.72381592  .00218642  00000+0  40083-2 0  9996
2 52066  82.5088 106.6281 0082070 146.1917 214.4604 15.44865342156355
